{"type": "FeatureCollection", "features": [ {"type": "Feature", "properties": {"norad_id": 34845, "name": "COSMOS 2251 DEB", "group": "cosmos-2251-debris", "lat": 55.31917273489345, "lon": 149.01801068159466, "alt_km": 744.9681439220913, "timestamp": "2025-12-25T11:37:44.834700+00:00", "meta": {"OBJECT_NAME": "COSMOS 2251 DEB", "OBJECT_ID": "1993-036ABP", "EPOCH": "2025-12-24T15:25:52.110336", "MEAN_MOTION": 14.4588243, "ECCENTRICITY": 0.00226897, "INCLINATION": 74.0249, "RA_OF_ASC_NODE": 126.132, "ARG_OF_PERICENTER": 285.329, "MEAN_ANOMALY": 74.5361, "EPHEMERIS_TYPE": 0, "CLASSIFICATION_TYPE": "U", "NORAD_CAT_ID": 34845, "ELEMENT_SET_NO": 999, "REV_AT_EPOCH": 87638, "BSTAR": 0.00029040944, "MEAN_MOTION_DOT": 1.008e-05, "MEAN_MOTION_DDOT": 0}, "tle": {"line1": "1 34845U 93036ABP 25358.64296424  .00001008  00000+0  29041-3 0  9992", "line2": "2 34845  74.0249 126.1320 0022689 285.3290  74.5361 14.45882430876380"}}, "geometry": {"type": "Point", "coordinates": [149.01801068159466, 55.31917273489345]}}, {"type": "Feature", "properties": {"norad_id": 34846, "name": "COSMOS 2251 DEB", "group": "cosmos-2251-debris", "lat": 57.457631985850696, "lon": -95.3931145011454, "alt_km": 737.5749683686918, "timestamp": "2025-12-25T11:37:44.834710+00:00", "meta": {"OBJECT_NAME": "COSMOS 2251 DEB", "OBJECT_ID": "1993-036ABQ", "EPOCH": "2025-12-24T17:05:55.036320", "MEAN_MOTION": 14.47277381, "ECCENTRICITY": 0.00262307, "INCLINATION": 74.0298, "RA_OF_ASC_NODE": 239.3851, "ARG_OF_PERICENTER": 304.2923, "MEAN_ANOMALY": 55.5752, "EPHEMERIS_TYPE": 0, "CLASSIFICATION_TYPE": "U", "NORAD_CAT_ID": 34846, "ELEMENT_SET_NO": 999, "REV_AT_EPOCH": 87577, "BSTAR": 0.00069731447, "MEAN_MOTION_DOT": 2.535e-05, "MEAN_MOTION_DDOT": 0}, "tle": {"line1": "1 34846U 93036ABQ 25358.71244255  .00002535  00000+0  69731-3 0  9992", "line2": "2 34846  74.0298 239.3851 0026230 304.2923  55.5752 14.47277381875771"}}, "geometry": {"type": "Point", "coordinates": [-95.3931145011454, 57.457631985850696]}}, {"type": "Feature", "properties": {"norad_id": 34852, "name": "COSMOS 2251 DEB", "group": "cosmos-2251-debris", "lat": 17.036481223562667, "lon": -115.43242274124896, "alt_km": 759.0971507029435, "timestamp": "2025-12-25T11:37:44.834720+00:00", "meta": {"OBJECT_NAME": "COSMOS 2251 DEB", "OBJECT_ID": "1993-036ABW", "EPOCH": "2025-12-24T08:48:51.292512", "MEAN_MOTION": 14.37013481, "ECCENTRICITY": 0.00167051, "INCLINATION": 74.0323, "RA_OF_ASC_NODE": 241.5883, "ARG_OF_PERICENTER": 342.3569, "MEAN_ANOMALY": 17.7002, "EPHEMERIS_TYPE": 0, "CLASSIFICATION_TYPE": "U", "NORAD_CAT_ID": 34852, "ELEMENT_SET_NO": 999, "REV_AT_EPOCH": 87701, "BSTAR": 0.00010991472, "MEAN_MOTION_DOT": 3e-06, "MEAN_MOTION_DDOT": 0}, "tle": {"line1": "1 34852U 93036ABW 25358.36726033  .00000300  00000+0  10991-3 0  9991", "line2": "2 34852  74.0323 241.5883 0016705 342.3569  17.7002 14.37013481877017"}}, "geometry": {"type": "Point", "coordinates": [-115.43242274124896, 17.036481223562667]}}, {"type": "Feature", "properties": {"norad_id": 34854, "name": "COSMOS 2251 DEB", "group": "cosmos-2251-debris", "lat": -55.85224624917272, "lon": 108.62428681345199, "alt_km": 621.5593701170355, "timestamp": "2025-12-25T11:37:44.834730+00:00", "meta": {"OBJECT_NAME": "COSMOS 2251 DEB", "OBJECT_ID": "1993-036ABY", "EPOCH": "2025-12-24T03:22:47.701632", "MEAN_MOTION": 14.76734417, "ECCENTRICITY": 0.00659344, "INCLINATION": 74.0296, "RA_OF_ASC_NODE": 136.2324, "ARG_OF_PERICENTER": 245.6439, "MEAN_ANOMALY": 113.7843, "EPHEMERIS_TYPE": 0, "CLASSIFICATION_TYPE": "U", "NORAD_CAT_ID": 34854, "ELEMENT_SET_NO": 999, "REV_AT_EPOCH": 72050, "BSTAR": 0.00083194152, "MEAN_MOTION_DOT": 6.009e-05, "MEAN_MOTION_DDOT": 0}, "tle": {"line1": "1 34854U 93036ABY 25358.14082988  .00006009  00000+0  83194-3 0  9990", "line2": "2 34854  74.0296 136.2324 0065934 245.6439 113.7843 14.76734417720500"}}, "geometry": {"type": "Point", "coordinates": [108.62428681345199, -55.85224624917272]}}, {"type": "Feature", "properties": {"norad_id": 34856, "name": "COSMOS 2251 DEB", "group": "cosmos-2251-debris", "lat": -60.36624981247978, "lon": 28.32636309935129, "alt_km": 557.3336759027543, "timestamp": "2025-12-25T11:37:44.834740+00:00", "meta": {"OBJECT_NAME": "COSMOS 2251 DEB", "OBJECT_ID": "1993-036ACA", "EPOCH": "2025-12-24T22:21:30.996000", "MEAN_MOTION": 15.06656764, "ECCENTRICITY": 0.003106, "INCLINATION": 73.996, "RA_OF_ASC_NODE": 59.7657, "ARG_OF_PERICENTER": 195.18, "MEAN_ANOMALY": 341.9359, "EPHEMERIS_TYPE": 0, "CLASSIFICATION_TYPE": "U", "NORAD_CAT_ID": 34856, "ELEMENT_SET_NO": 999, "REV_AT_EPOCH": 89295, "BSTAR": 0.0017148, "MEAN_MOTION_DOT": 0.00025776, "MEAN_MOTION_DDOT": 0}, "tle": {"line1": "1 34856U 93036ACA 25358.93160875  .00025776  00000+0  17148-2 0  9998", "line2": "2 34856  73.9960  59.7657 0031060 195.1800 341.9359 15.06656764892958"}}, "geometry": {"type": "Point", "coordinates": [28.32636309935129, -60.36624981247978]}}, {"type": "Feature", "properties": {"norad_id": 34857, "name": "COSMOS 2251 DEB", "group": "cosmos-2251-debris", "lat": -63.362398343639526, "lon": 47.66401008885257, "alt_km": 700.5391301649788, "timestamp": "2025-12-25T11:37:44.834766+00:00", "meta": {"OBJECT_NAME": "COSMOS 2251 DEB", "OBJECT_ID": "1993-036ACB", "EPOCH": "2025-12-24T16:53:52.150848", "MEAN_MOTION": 14.5900619, "ECCENTRICITY": 0.00653187, "INCLINATION": 74.0151, "RA_OF_ASC_NODE": 84.0064, "ARG_OF_PERICENTER": 206.2464, "MEAN_ANOMALY": 306.9484, "EPHEMERIS_TYPE": 0, "CLASSIFICATION_TYPE": "U", "NORAD_CAT_ID": 34857, "ELEMENT_SET_NO": 999, "REV_AT_EPOCH": 88075, "BSTAR": 0.0010319956, "MEAN_MOTION_DOT": 4.964e-05, "MEAN_MOTION_DDOT": 0}, "tle": {"line1": "1 34857U 93036ACB 25358.70407582  .00004964  00000+0  10320-2 0  9994", "line2": "2 34857  74.0151  84.0064 0065318 206.2464 306.9484 14.59006190880753"}}, "geometry": {"type": "Point", "coordinates": [47.66401008885257, -63.362398343639526]}}, {"type": "Feature", "properties": {"norad_id": 34859, "name": "COSMOS 2251 DEB", "group": "cosmos-2251-debris", "lat": -33.60825400842131, "lon": -57.865801838399136, "alt_km": 521.4627801545257, "timestamp": "2025-12-25T11:37:44.834780+00:00", "meta": {"OBJECT_NAME": "COSMOS 2251 DEB", "OBJECT_ID": "1993-036ACD", "EPOCH": "2025-12-24T23:24:16.834176", "MEAN_MOTION": 15.16561458, "ECCENTRICITY": 0.0001385, "INCLINATION": 74.0308, "RA_OF_ASC_NODE": 314.1675, "ARG_OF_PERICENTER": 31.1721, "MEAN_ANOMALY": 34.0562, "EPHEMERIS_TYPE": 0, "CLASSIFICATION_TYPE": "U", "NORAD_CAT_ID": 34859, "ELEMENT_SET_NO": 999, "REV_AT_EPOCH": 88544, "BSTAR": 0.003895, "MEAN_MOTION_DOT": 0.00076819, "MEAN_MOTION_DDOT": 0}, "tle": {"line1": "1 34859U 93036ACD 25358.97519484  .00076819  00000+0  38950-2 0  9997", "line2": "2 34859  74.0308 314.1675 0001385  31.1721  34.0562 15.16561458885443"}}, "geometry": {"type": "Point", "coordinates": [-57.865801838399136, -33.60825400842131]}}, {"type": "Feature", "properties": {"norad_id": 34861, "name": "COSMOS 2251 DEB", "group": "cosmos-2251-debris", "lat": 6.297154641266119, "lon": 26.614010992724367, "alt_km": 552.6321324075161, "timestamp": "2025-12-25T11:37:44.834790+00:00", "meta": {"OBJECT_NAME": "COSMOS 2251 DEB", "OBJECT_ID": "1993-036ACF", "EPOCH": "2025-12-24T08:30:51.111936", "MEAN_MOTION": 15.03272413, "ECCENTRICITY": 0.00083388, "INCLINATION": 74.0171, "RA_OF_ASC_NODE": 27.1111, "ARG_OF_PERICENTER": 15.9962, "MEAN_ANOMALY": 358.949, "EPHEMERIS_TYPE": 0, "CLASSIFICATION_TYPE": "U", "NORAD_CAT_ID": 34861, "ELEMENT_SET_NO": 999, "REV_AT_EPOCH": 88267, "BSTAR": 0.002836129, "MEAN_MOTION_DOT": 0.00038649, "MEAN_MOTION_DDOT": 0}, "tle": {"line1": "1 34861U 93036ACF 25358.35475824  .00038649  00000+0  28361-2 0  9995", "line2": "2 34861  74.0171  27.1111 0008338  15.9962 358.9490 15.03272413882678"}}, "geometry": {"type": "Point", "coordinates": [26.614010992724367, 6.297154641266119]}}, {"type": "Feature", "properties": {"norad_id": 34874, "name": "COSMOS 2251 DEB", "group": "cosmos-2251-debris", "lat": 32.746810243298484, "lon": -140.24802480304714, "alt_km": 758.1590233664601, "timestamp": "2025-12-25T11:37:44.834801+00:00", "meta": {"OBJECT_NAME": "COSMOS 2251 DEB", "OBJECT_ID": "1993-036ACM", "EPOCH": "2025-12-24T22:24:14.356800", "MEAN_MOTION": 14.36365151, "ECCENTRICITY": 0.0050509, "INCLINATION": 74.0391, "RA_OF_ASC_NODE": 51.3701, "ARG_OF_PERICENTER": 72.6657, "MEAN_ANOMALY": 104.1751, "EPHEMERIS_TYPE": 0, "CLASSIFICATION_TYPE": "U", "NORAD_CAT_ID": 34874, "ELEMENT_SET_NO": 999, "REV_AT_EPOCH": 87219, "BSTAR": 0.00083514, "MEAN_MOTION_DOT": 2.455e-05, "MEAN_MOTION_DDOT": 0}, "tle": {"line1": "1 34874U 93036ACM 25358.93349950  .00002455  00000+0  83514-3 0  9991", "line2": "2 34874  74.0391  51.3701 0050509  72.6657 104.1751 14.36365151872192"}}, "geometry": {"type": "Point", "coordinates": [-140.24802480304714, 32.746810243298484]}}, {"type": "Feature", "properties": {"norad_id": 34875, "name": "COSMOS 2251 DEB", "group": "cosmos-2251-debris", "lat": 52.63814020800463, "lon": 156.3441075419456, "alt_km": 734.5248419753589, "timestamp": "2025-12-25T11:37:44.834811+00:00", "meta": {"OBJECT_NAME": "COSMOS 2251 DEB", "OBJECT_ID": "1993-036ACN", "EPOCH": "2025-12-24T15:33:22.942944", "MEAN_MOTION": 14.48965081, "ECCENTRICITY": 0.00162603, "INCLINATION": 74.0438, "RA_OF_ASC_NODE": 135.9032, "ARG_OF_PERICENTER": 258.7537, "MEAN_ANOMALY": 116.0666, "EPHEMERIS_TYPE": 0, "CLASSIFICATION_TYPE": "U", "NORAD_CAT_ID": 34875, "ELEMENT_SET_NO": 999, "REV_AT_EPOCH": 87928, "BSTAR": 0.00046663388, "MEAN_MOTION_DOT": 1.744e-05, "MEAN_MOTION_DDOT": 0}, "tle": {"line1": "1 34875U 93036ACN 25358.64818221  .00001744  00000+0  46663-3 0  9996", "line2": "2 34875  74.0438 135.9032 0016260 258.7537 116.0666 14.48965081879286"}}, "geometry": {"type": "Point", "coordinates": [156.3441075419456, 52.63814020800463]}}]}